ROBUSTA 1F (MTCUBE-2)
1 53109U 22080E   26178.76757484 -.00000003  00000-0  00000-0 0  9996
2 53109  70.1441 294.5656 0008984 287.3296  72.6381  6.42583239 92741
BLUEWALKER-3
1 53807U 22111AL  26178.76972759  .00005544  00000-0  15439-3 0  9999
2 53807  53.2301 344.2854 0005376 194.7239 165.3610 15.38401266211838
ELEKTRO-L4
1 55506U 23016A   26178.77316419 -.00000047  00000-0  00000-0 0  9997
2 55506   0.0852 147.8604 0001002  34.6191 177.5158  1.00271463 12433
SHARJAHSAT-1
1 55104U 23001CZ  26178.89928144  .00021190  00000-0  38600-3 0  9993
2 55104  97.3179 247.8154 0006392  73.0763 287.1188 15.49480641194157
METEOR M2-3
1 57166U 23091A   26178.91886249 -.00000004  00000-0  16972-4 0  9995
2 57166  98.6078 233.6775 0004858 129.3488 230.8122 14.24047580156047
RESHUCUBE-2 (RS37S)
1 57168U 23091C   26178.91292646  .00009149  00000-0  35013-3 0  9993
2 57168  97.5026 241.2850 0012517  73.6177 286.6436 15.26724986165891
RASSVET 1-1
1 57169U 23091D   26178.95261730  .00008433  00000-0  34684-3 0  9996
2 57169  97.5112 240.5140 0011413  69.9379 290.3085 15.24352046165803
RASSVET 1-2
1 57170U 23091E   26178.95277080  .00008272  00000-0  34038-3 0  9997
2 57170  97.5117 240.5924 0010204  63.1941 297.0338 15.24351309165804
RASSVET 1-3
1 57171U 23091F   26178.95239536  .00008472  00000-0  34828-3 0  9991
2 57171  97.5113 240.5421 0012331  78.7409 281.5213 15.24353529165803
UMKA-1 (RS40S)
1 57172U 23091G   26178.94987956  .00006043  00000-0  27546-3 0  9998
2 57172  97.5051 237.6058 0014258  84.4704 275.8157 15.20939248165649
SATURN (RS43S)
1 57174U 23091J   26178.96169799  .00004282  00000-0  23888-3 0  9997
2 57174  97.5053 231.9044 0014823 109.4397 250.8437 15.14000510165265
CUBEBEL-2 (EU11S)
1 57175U 23091K   26178.91478584  .00013630  00000-0  47933-3 0  9992
2 57175  97.5054 242.2284 0011038  82.0190 278.2302 15.29416927165949
SITRO-AIS-5 (ANOKHIN)
1 57176U 23091L   26178.92971863  .00012772  00000-0  44537-3 0  9995
2 57176  97.5063 242.9322 0012301  70.0903 290.1661 15.29696691165986
ZORKIY-2M
1 57177U 23091M   26178.93561311  .00006587  00000-0  29900-3 0  9994
2 57177  97.5091 237.8669 0014717  81.8623 278.4282 15.21040222165632
CUBESX-HSE-3 (RS42S)
1 57178U 23091N   26178.95568149  .00012950  00000-0  42752-3 0  9994
2 57178  97.5095 244.6799 0011419  60.9784 299.2600 15.31479800166072
PHI-DEMO
1 57181U 23091R   26178.93036769  .00003139  00000-0  17323-3 0  9999
2 57181  97.5064 232.7379 0016758 100.1785 260.1338 15.14563212165316
MONITOR-3 (RS58S)
1 57180U 23091Q   26178.93860618  .00010713  00000-0  39330-3 0  9994
2 57180  97.5086 242.4642 0012642  67.3400 292.9175 15.28052672165934
NORBY-2
1 57179U 23091P   26178.90714881  .00004622  00000-0  23945-3 0  9996
2 57179  97.5093 234.7907 0016439  89.3018 271.0098 15.16572061165416
MONITOR-4 (RS57S)
1 57182U 23091S   26178.91706616  .00010743  00000-0  39337-3 0  9991
2 57182  97.5080 242.4143 0012661  67.6781 292.5799 15.28137301165933
MONITOR-2 (RS39S)
1 57184U 23091U   26178.91883748  .00005123  00000-0  24760-3 0  9995
2 57184  97.5072 237.1325 0012673  78.6637 281.6020 15.19006672165587
SVYATOBOR-1 (RS60S)
1 57187U 23091X   26178.93947517  .00008924  00000-0  34112-3 0  9999
2 57187  97.5091 242.8164 0010407  61.8873 298.3416 15.26792093165956
VIZARD-METEO (RS38S)
1 57189U 23091Z   26178.96063112  .00017050  00000-0  48229-3 0  9998
2 57189  97.5095 248.6632 0007415  43.9199 316.2633 15.36360834166343
SITRO-AIS-6 (CHIRKIN)
1 57192U 23091AC  26178.93357225  .00010301  00000-0  40083-3 0  9992
2 57192  97.5069 241.9979 0012730  73.2681 286.9953 15.26133917165926
SITRO-AIS-8 (SHCHUKIN)
1 57193U 23091AD  26178.92782915  .00014823  00000-0  47478-3 0  9998
2 57193  97.5059 244.5629 0011233  66.4354 293.8066 15.32419646166099
SITRO-AIS-7 (SHEFFER)
1 57194U 23091AE  26178.93893184  .00009867  00000-0  38774-3 0  9992
2 57194  97.5066 241.8227 0012660  74.1818 286.0815 15.25817246165914
AVION KALUGA 650 (RS24S)
1 57195U 23091AF  26178.95568542  .00005528  00000-0  25597-3 0  9991
2 57195  97.5090 238.4885 0011788  76.9162 283.3388 15.20463819165661
SITRO-AIS-10 (KATYS)
1 57199U 23091AK  26178.91383864  .00018440  00000-0  47878-3 0  9996
2 57199  97.5086 249.7144 0006601  46.8482 313.3314 15.39004821166413
SITRO-AIS-9 (BURDAEV)
1 57201U 23091AM  26178.94369535  .00020068  00000-0  52918-3 0  9992
2 57201  97.5082 249.4663 0006866  46.9496 313.2322 15.38508053166407
UTMN-2 (RS27S)
1 57203U 23091AP  26178.96741307  .00012432  00000-0  40045-3 0  9991
2 57203  97.5091 246.3389 0008537  50.8623 309.3376 15.32308124166195
SITRO-AIS-12 (FARTUSHNY)
1 57204U 23091AQ  26178.93226723  .00019051  00000-0  49787-3 0  9995
2 57204  97.5096 249.9286 0006360  41.5099 318.6628 15.38799722166425
AHMAT-1 (RS41S)
1 57206U 23091AS  26178.93063323  .00085858  00000-0  86495-3 0  9997
2 57206  97.5039 259.4415 0001394 308.9045  51.2090 15.65128172167077
SITRO-AIS-11 (SMIRENNY)
1 57208U 23091AU  26178.94269538  .00020432  00000-0  52624-3 0  9990
2 57208  97.5094 250.1927 0006245  41.3509 318.8208 15.39232143166447
KUZGTU-1 (RS47S)
1 57217U 23091AV  26178.95638525  .00012206  00000-0  42059-3 0  9998
2 57217  97.5066 243.5469 0011797  64.5075 295.7385 15.30102055166028
METEOR M2-4
1 59051U 24039A   26178.94576130  .00000003  00000-0  21026-4 0  9995
2 59051  98.7014 138.1087 0007848 132.1771 228.0075 14.22430586120796
PARS-1
1 59065U 24039Q   26178.93065186  .00011192  00000-0  23120-3 0  9990
2 59065  97.4819 160.1901 0011446  80.1984 280.0557 15.45943808130300
SITRO-AIS-25
1 59066U 24039R   26178.96184881  .00002186  00000-0  17264-3 0  9993
2 59066  95.3906 242.4968 0142547 290.6270  67.9717 14.93561655126331
SITRO-AIS-26
1 59067U 24039S   26178.96469681  .00002285  00000-0  18117-3 0  9996
2 59067  95.3907 242.3941 0142894 291.2171  67.3841 14.93356068126326
SITRO-AIS-27
1 59068U 24039T   26178.93191997  .00002833  00000-0  22206-3 0  9999
2 59068  95.3913 242.6483 0141794 289.9127  68.6869 14.93779713126343
SITRO-AIS-28
1 59071U 24039U   26178.97610649  .00002650  00000-0  20769-3 0  9996
2 59071  95.3910 242.7264 0141793 289.5737  69.0226 14.93810944126359
SONATE-2
1 59112U 24043Q   26178.85678590  .00038779  00000-0  48836-3 0  9999
2 59112  97.5535 329.9134 0007288 160.8261 199.3271 15.59513453129559
HORS-1
1 57188U 23091Y   26178.92425244  .00009436  00000-0  35936-3 0  9991
2 57188  97.5069 242.5620 0009868  62.0062 298.2174 15.26903595165959
HORS-2
1 57196U 23091AG  26178.94129737  .00014177  00000-0  45836-3 0  9998
2 57196  97.5092 246.1185 0008607  55.1828 305.0222 15.32156602166175
ZORKIY-2M 6
1 59774U 24092B   26178.90376583  .00010556  00000-0  37793-3 0  9993
2 59774  97.6499 308.3056 0009693 140.2644 219.9307 15.28917429117177
ZORKIY-2M 4
1 59775U 24092C   26178.94472049  .00010089  00000-0  35364-3 0  9995
2 59775  97.6644 310.2290 0009721 142.2241 217.9683 15.29624264117223
SITRO-AIS-53
1 59776U 24092D   26178.89962249  .00019202  00000-0  52568-3 0  9997
2 59776  97.6585 312.4214 0007895 113.6095 246.5978 15.37353453117398
SITRO-AIS-54
1 59777U 24092E   26178.84967622  .00020054  00000-0  55030-3 0  9997
2 59777  97.6582 312.3246 0007952 113.9898 246.2179 15.37270076117386
SITRO-AIS-56
1 59778U 24092F   26178.82035950  .00019987  00000-0  53505-3 0  9994
2 59778  97.6578 312.6301 0008119 113.6621 246.5476 15.38036733117401
RASSVET 1-4
1 59779U 24092G   26178.91652388  .00000147  00000-0  71659-4 0  9994
2 59779  98.6714 297.9464 0012128 171.4307 188.7086 14.31849353110430
RASSVET 1-5
1 59780U 24092H   26178.91642593  .00000154  00000-0  74125-4 0  9992
2 59780  98.6714 297.9388 0012470 172.9752 187.1608 14.31850599110434
RASSVET 1-6
1 59781U 24092J   26178.91497147  .00000152  00000-0  73434-4 0  9996
2 59781  98.6713 297.9428 0012349 173.1608 186.9746 14.31851305110433
SITRO-AIS-55
1 59809U 24092K   26178.90661752  .00019539  00000-0  54046-3 0  9997
2 59809  97.6576 312.1879 0008078 113.4366 246.7728 15.37026695116885
MESAT-1
1 60209U 24125G   26178.85690479  .00057869  00000-0  60122-3 0  9992
2 60209  97.2278  36.5908 0010583 166.6866 193.4675 15.64380819111239
ISTSAT-1
1 60238U 24128D   26178.96737174  .00006002  00000-0  35767-3 0  9993
2 60238  61.9859 168.0114 0036712 133.2955 227.1213 15.11733282108096
IONOSFERA-M 01
1 61735U 24199A   26178.95365230  .00000055  00000-0  44277-4 0  9992
2 61735  98.7161  52.0116 0002160  96.0167 264.1257 14.22756140129235
IONOSFERA-M 02
1 61736U 24199B   26178.91759572  .00000057  00000-0  45192-4 0  9994
2 61736  98.7159  51.8864 0000586  40.6330 319.4892 14.22759450132350
SITRO-AIS-16
1 61737U 24199C   26178.91418497  .00002714  00000-0  23640-3 0  9998
2 61737  97.3238  17.5732 0007932  42.2244 317.9588 14.97650492133423
SITRO-AIS-15
1 61738U 24199D   26178.96511938  .00003266  00000-0  28348-3 0  9991
2 61738  97.3226  17.6593 0007418  44.1237 316.0577 14.97660774133432
SITRO-AIS-21
1 61739U 24199E   26178.84867521  .00002082  00000-0  19403-3 0  9998
2 61739  97.3250  15.9371 0013465  33.9433 326.2648 14.95183036133349
SITRO-AIS-22
1 61740U 24199F   26178.93947217  .00002367  00000-0  21570-3 0  9995
2 61740  97.3238  16.2656 0013178  32.0962 328.1060 14.95952020133521
SITRO-AIS-24
1 61741U 24199G   26178.92284653  .00001883  00000-0  17145-3 0  9998
2 61741  97.3246  16.2972 0013301  33.4502 326.7558 14.96203368133492
SITRO-AIS-23
1 61742U 24199H   26178.92667592  .00001915  00000-0  17530-3 0  9990
2 61742  97.3242  16.2835 0013199  33.1468 327.0578 14.95980849133378
SITRO-AIS-13
1 61743U 24199J   26178.95193990  .00002777  00000-0  24013-3 0  9991
2 61743  97.3215  17.8130 0006834  41.8518 318.3227 14.97926324133604
CSTP-2.11
1 61744U 24199K   26178.94122227  .00028654  00000-0  46770-3 0  9992
2 61744  97.2942  54.3238 0006410 220.9662 139.1110 15.52523799136037
